NORAD_CAT_ID,OBJECT_NAME,OBJECT_TYPE,EPOCH,MEAN_MOTION,ECCENTRICITY,INCLINATION,RA_OF_ASC_NODE,ARG_OF_PERICENTER,MEAN_ANOMALY,BSTAR,MEAN_MOTION_DOT,MEAN_MOTION_DDOT,TLE_LINE0,TLE_LINE1,TLE_LINE2,SEMIMAJOR_AXIS,PERIOD,APOGEE,PERIGEE,DECAYED
52839.0,STARLINK-4048,PAYLOAD,2022-10-26 14:00:01,15.08832728,0.0001938,53.2166,156.2905,51.4566,246.9269,0.0020399999999999,0.00032322,0.0,0 STARLINK-4048,1 52839U 22062K   22299.58334491  .00032322  00000-0  20400-2 0  9990,2 52839  53.2166 156.2905 0001938  51.4566 246.9269 15.08832728  1304,6917.903,95.438,541.1080000000002,538.427,0.0
52839.0,STARLINK-4048,PAYLOAD,2022-10-26 22:00:00,15.08842255,0.0002148,53.2165,154.7959,47.1538,262.8301,0.0002784,4.146e-05,0.0,0 STARLINK-4048,1 52839U 22062K   22299.91667824  .00004146  00000-0  27840-3 0  9995,2 52839  53.2165 154.7959 0002148  47.1538 262.8301 15.08842255  1300,6917.873000000001,95.437,541.224,538.253,0.0
52839.0,STARLINK-4048,PAYLOAD,2022-10-27 08:00:01,15.08858435,0.0002038,53.2165,152.924,48.6593,5.8326,-0.0002827,-4.787e-05,0.0,0 STARLINK-4048,1 52839U 22062K   22300.33334491 -.00004787  00000-0 -28270-3 0  9996,2 52839  53.2165 152.9240 0002038  48.6593   5.8326 15.08858435 20689,6917.824000000001,95.436,541.099,538.279,0.0
52839.0,STARLINK-4048,PAYLOAD,2022-10-27 14:00:01,15.08861745,0.0001999,53.2166,151.8011,51.6583,281.6047,0.0003143999999999,4.722e-05,0.0,0 STARLINK-4048,1 52839U 22062K   22300.58335648  .00004722  00000-0  31440-3 0  9998,2 52839  53.2166 151.8011 0001999  51.6583 281.6047 15.08861745  1302,6917.814,95.436,541.062,538.2959999999998,0.0
52839.0,STARLINK-4048,PAYLOAD,2022-10-27 22:00:00,15.08839492,0.0002171999999999,53.2166,150.3065,46.3392,298.4916,0.00010689,1.413e-05,0.0,0 STARLINK-4048,1 52839U 22062K   22300.91667824  .00001413  00000-0  10689-3 0  9995,2 52839  53.2166 150.3065 0002172  46.3392 298.4916 15.08839492  1303,6917.882,95.438,541.25,538.244,0.0
52839.0,STARLINK-4048,PAYLOAD,2022-10-28 08:00:01,15.08858098,0.0001983,53.2169,148.4345,46.4309,42.9666,-0.0025338,-0.00040409,0.0,0 STARLINK-4048,1 52839U 22062K   22301.33335648 -.00040409  00000-0 -25338-2 0  9994,2 52839  53.2169 148.4345 0001983  46.4309  42.9666 15.08858098 20839,6917.825,95.436,541.062,538.318,0.0
52839.0,STARLINK-4048,PAYLOAD,2022-10-28 14:00:01,15.08824609,0.0001949,53.2171,147.3118,48.7445,319.3540000000001,0.0015616,0.00024642,0.0,0 STARLINK-4048,1 52839U 22062K   22301.58335648  .00024642  00000-0  15616-2 0  9998,2 52839  53.2171 147.3118 0001949  48.7445 319.3540 15.08824609  1300,6917.927,95.439,541.141,538.444,0.0
52839.0,STARLINK-4048,PAYLOAD,2022-10-28 22:00:01,15.08827405,0.0002162,53.2172,145.8172,44.4146,335.2735,0.0010271,0.00016091,0.0,0 STARLINK-4048,1 52839U 22062K   22301.91668981  .00016091  00000-0  10271-2 0  9995,2 52839  53.2172 145.8172 0002162  44.4146 335.2735 15.08827405  1303,6917.919,95.438,541.28,538.288,0.0
52839.0,STARLINK-4048,PAYLOAD,2022-10-29 12:00:00,15.08814529,0.0001921,53.2175,143.1967,47.289,262.638,0.0021379999999999,0.00033879,0.0,0 STARLINK-4048,1 52839U 22062K   22302.50001157  .00033879  00000-0  21380-2 0  9993,2 52839  53.2175 143.1967 0001921  47.2890 262.6380 15.08814529  1300,6917.958000000001,95.439,541.1519999999998,538.494,0.0
52839.0,STARLINK-4048,PAYLOAD,2022-10-29 22:00:01,15.08824501,0.0002130999999999,53.2176,141.3265,42.7737,11.6982,0.0015042,0.00023723,0.0,0 STARLINK-4048,1 52839U 22062K   22302.91668981  .00023723  00000-0  15042-2 0  9997,2 52839  53.2176 141.3265 0002131  42.7737  11.6982 15.08824501  1307,6917.928000000001,95.439,541.2669999999998,538.319,0.0
52839.0,STARLINK-4048,PAYLOAD,2022-10-30 00:00:00,15.08812215,0.0002126,53.2174,140.9512,41.3355,105.9748,0.0036388,0.00058057,0.0,0 STARLINK-4048,1 52839U 22062K   22303.00001157  .00058057  00000-0  36388-2 0  9998,2 52839  53.2174 140.9512 0002126  41.3355 105.9748 15.08812215 21094,6917.965,95.439,541.3009999999998,538.36,0.0
52839.0,STARLINK-4048,PAYLOAD,2022-10-30 14:00:01,15.08856313,0.0002020999999999,53.2183,138.3341,49.8816,27.708,-0.0024070999999999,-0.00038411,0.0,0 STARLINK-4048,1 52839U 22062K   22303.58334491 -.00038411  00000-0 -24071-2 0  9991,2 52839  53.2183 138.3341 0002021  49.8816  27.7080 15.08856313  1303,6917.831,95.437,541.094,538.297,0.0
52839.0,STARLINK-4048,PAYLOAD,2022-10-30 22:00:01,15.08811278,0.0002231999999999,53.2183,136.8394,46.4657,42.7897,0.0017067999999999,0.00026959,0.0,0 STARLINK-4048,1 52839U 22062K   22303.91668981  .00026959  00000-0  17068-2 0  9992,2 52839  53.2183 136.8394 0002232  46.4657  42.7897 15.08811278  1308,6917.968000000003,95.439,541.377,538.289,0.0
52839.0,STARLINK-4048,PAYLOAD,2022-10-31 14:00:01,15.08843343,0.0002065,53.2184,133.8455,52.6421,59.7038,-2.4155e-05,-6.73e-06,0.0,0 STARLINK-4048,1 52839U 22062K   22304.58334491 -.00000673  00000-0 -24155-4 0  9996,2 52839  53.2184 133.8455 0002065  52.6421  59.7038 15.08843343  1309,6917.87,95.437,541.164,538.307,0.0
52839.0,STARLINK-4048,PAYLOAD,2022-10-31 22:00:01,15.08823679,0.0002211999999999,53.2183,132.3508,47.5902,76.4217,0.0019701,0.00031192,0.0,0 STARLINK-4048,1 52839U 22062K   22304.91668981  .00031192  00000-0  19701-2 0  9994,2 52839  53.2183 132.3508 0002212  47.5902  76.4217 15.08823679  1307,6917.93,95.439,541.326,538.265,0.0
52839.0,STARLINK-4048,PAYLOAD,2022-11-01 00:00:02,15.08824547,0.0002206,53.218,131.9768,46.6328,170.2764,0.0022704,0.00036016,0.0,0 STARLINK-4048,1 52839U 22062K   22305.00002315  .00036016  00000-0  22704-2 0  9995,2 52839  53.2180 131.9768 0002206  46.6328 170.2764 15.08824547 21398,6917.928000000001,95.439,541.319,538.2669999999998,0.0
52839.0,STARLINK-4048,PAYLOAD,2022-11-01 14:00:01,15.08836395,0.0001996,53.2182,129.3568,52.1952,94.94,-0.00048059,-7.928e-05,0.0,0 STARLINK-4048,1 52839U 22062K   22305.58334491 -.00007928  00000-0 -48059-3 0  9995,2 52839  53.2182 129.3568 0001996  52.1952  94.9400 15.08836395 21482,6917.891,95.438,541.137,538.376,0.0
52839.0,STARLINK-4048,PAYLOAD,2022-11-01 22:00:00,15.08811124,0.0002158,53.218,127.8621,46.8063,111.9226,0.0025674,0.00040777,0.0,0 STARLINK-4048,1 52839U 22062K   22305.91667824  .00040777  00000-0  25674-2 0  9995,2 52839  53.2180 127.8621 0002158  46.8063 111.9226 15.08811124  1305,6917.969,95.439,541.327,538.341,0.0
52839.0,STARLINK-4048,PAYLOAD,2022-11-02 14:00:01,15.08854491,0.000205,53.2176,124.8673,53.4378,128.4573,-0.00064121,-0.00010483,0.0,0 STARLINK-4048,1 52839U 22062K   22306.58334491 -.00010483  00000-0 -64121-3 0  9994,2 52839  53.2176 124.8673 0002050  53.4378 128.4573 15.08854491 21638,6917.8359999999975,95.437,541.119,538.283,0.0
52839.0,STARLINK-4048,PAYLOAD,2022-11-02 16:22:37,15.08839398,0.0002059,53.2192,124.4223,46.9469,313.1695,0.00015571,2.191e-05,0.0,0 STARLINK-4048,1 52839U 22062K   22306.68237708  .00002191  00000-0  15571-3 0  9998,2 52839  53.2192 124.4223 0002059  46.9469 313.1695 15.08839398 21154,6917.882,95.438,541.172,538.323,0.0
52839.0,STARLINK-4048,PAYLOAD,2022-11-03 11:27:14,15.08849976,0.0002091,53.2193,120.8541,50.4341,309.6836,0.0001232,1.674e-05,0.0,0 STARLINK-4048,1 52839U 22062K   22307.47724975  .00001674  00000-0  12320-3 0  9997,2 52839  53.2193 120.8541 0002091  50.4341 309.6836 15.08849976 21760,6917.85,95.437,541.161,538.268,0.0
52839.0,STARLINK-4048,PAYLOAD,2022-11-03 20:59:33,15.08842018,0.0002094,53.2185,119.0707,49.236,310.8813,0.00014186,1.97e-05,0.0,0 STARLINK-4048,1 52839U 22062K   22307.87469431  .00001970  00000-0  14186-3 0  9995,2 52839  53.2185 119.0707 0002094  49.2360 310.8813 15.08842018 21337,6917.874,95.437,541.188,538.2909999999998,0.0
52839.0,STARLINK-4048,PAYLOAD,2022-11-04 11:18:01,15.08850433,0.0002259,53.216,116.394,56.2348,303.8859,0.0001156,1.552e-05,0.0,0 STARLINK-4048,1 52839U 22062K   22308.47084927  .00001552  00000-0  11560-3 0  9994,2 52839  53.2160 116.3940 0002259  56.2348 303.8859 15.08850433 21428,6917.848000000001,95.437,541.276,538.151,0.0
52839.0,STARLINK-4048,PAYLOAD,2022-11-04 20:50:20,15.08847804,0.0002017,53.2184,114.6102,48.2656,311.8509,9.8925e-05,1.287e-05,0.0,0 STARLINK-4048,1 52839U 22062K   22308.86828877  .00001287  00000-0  98925-4 0  9993,2 52839  53.2184 114.6102 0002017  48.2656 311.8509 15.08847804 21485,6917.857,95.437,541.117,538.326,0.0
52839.0,STARLINK-4048,PAYLOAD,2022-11-05 11:08:48,15.08840127,0.0002212,53.2177,111.9348,42.8418,317.2746,6.307800000000001e-05,7.16e-06,0.0,0 STARLINK-4048,1 52839U 22062K   22309.46445194  .00000716  00000-0  63078-4 0  9994,2 52839  53.2177 111.9348 0002212  42.8418 317.2746 15.08840127 22061,6917.88,95.438,541.275,538.215,0.0
52839.0,STARLINK-4048,PAYLOAD,2022-11-05 12:44:11,15.0883929,0.0001996,53.2183,111.6362,48.4866,311.6297,4.0101e-05,3.5000000000000016e-06,0.0,0 STARLINK-4048,1 52839U 22062K   22309.53069197  .00000350  00000-0  40101-4 0  9993,2 52839  53.2183 111.6362 0001996  48.4866 311.6297 15.08839290 21582,6917.8830000000025,95.438,541.128,538.367,0.0
52839.0,STARLINK-4048,PAYLOAD,2022-11-05 19:05:44,15.08839151,0.0002,53.2194,110.4471,47.8852,312.231,3.3004e-05,2.37e-06,0.0,0 STARLINK-4048,1 52839U 22062K   22309.79565250  .00000237  00000-0  33004-4 0  9990,2 52839  53.2194 110.4471 0002000  47.8852 312.2310 15.08839151 21621,6917.8830000000025,95.438,541.132,538.364,0.0
52839.0,STARLINK-4048,PAYLOAD,2022-11-06 10:59:36,15.08840956,0.0002043,53.2193,107.4734,48.7416,311.3752,-0.0002269,-3.898e-05,0.0,0 STARLINK-4048,1 52839U 22062K   22310.45806017 -.00003898  00000-0 -22690-3 0  9990,2 52839  53.2193 107.4734 0002043  48.7416 311.3752 15.08840956 22212,6917.877,95.437,541.156,538.3290000000002,0.0
52839.0,STARLINK-4048,PAYLOAD,2022-11-06 20:31:55,15.0881334,0.000195,53.2196,105.6895,53.0938,307.0232,0.0002408,3.544e-05,0.0,0 STARLINK-4048,1 52839U 22062K   22310.85550710  .00003544  00000-0  24080-3 0  9991,2 52839  53.2196 105.6895 0001950  53.0938 307.0232 15.08813340 22275,6917.962,95.439,541.1759999999998,538.4780000000002,0.0
